{
  "type": "FeatureCollection",
  "features": [
    {
      "type": "Feature",
      "properties": {
        "norad_id": 66433,
        "name": "STARLINK-35457",
        "group": "last-30-days",
        "lat": NaN,
        "lon": NaN,
        "alt_km": NaN,
        "timestamp": "2025-12-01T02:46:51.394661+00:00",
        "meta": {
          "OBJECT_NAME": "STARLINK-35457",
          "OBJECT_ID": "2025-259M",
          "EPOCH": "2025-11-30T20:00:03.000384",
          "MEAN_MOTION": 15.56133969,
          "ECCENTRICITY": 0.0001551,
          "INCLINATION": 42.999,
          "RA_OF_ASC_NODE": 116.9597,
          "ARG_OF_PERICENTER": 272.7291,
          "MEAN_ANOMALY": 51.531,
          "EPHEMERIS_TYPE": 0,
          "CLASSIFICATION_TYPE": "U",
          "NORAD_CAT_ID": 66433,
          "ELEMENT_SET_NO": 999,
          "REV_AT_EPOCH": 436,
          "BSTAR": -0.031082,
          "MEAN_MOTION_DOT": -0.01961258,
          "MEAN_MOTION_DDOT": 0
        }
      },
      "geometry": {
        "type": "Point",
        "coordinates": [
          NaN,
          NaN
        ]
      }
    },
    {
      "type": "Feature",
      "properties": {
        "norad_id": 66434,
        "name": "STARLINK-35389",
        "group": "last-30-days",
        "lat": NaN,
        "lon": NaN,
        "alt_km": NaN,
        "timestamp": "2025-12-01T02:46:51.394680+00:00",
        "meta": {
          "OBJECT_NAME": "STARLINK-35389",
          "OBJECT_ID": "2025-259N",
          "EPOCH": "2025-11-30T20:00:03.000384",
          "MEAN_MOTION": 15.56125222,
          "ECCENTRICITY": 0.000143,
          "INCLINATION": 42.9987,
          "RA_OF_ASC_NODE": 116.9549,
          "ARG_OF_PERICENTER": 276.626,
          "MEAN_ANOMALY": 49.554,
          "EPHEMERIS_TYPE": 0,
          "CLASSIFICATION_TYPE": "U",
          "NORAD_CAT_ID": 66434,
          "ELEMENT_SET_NO": 999,
          "REV_AT_EPOCH": 436,
          "BSTAR": -0.030882,
          "MEAN_MOTION_DOT": -0.01949525,
          "MEAN_MOTION_DDOT": 0
        }
      },
      "geometry": {
        "type": "Point",
        "coordinates": [
          NaN,
          NaN
        ]
      }
    },
    {
      "type": "Feature",
      "properties": {
        "norad_id": 66435,
        "name": "STARLINK-35502",
        "group": "last-30-days",
        "lat": NaN,
        "lon": NaN,
        "alt_km": NaN,
        "timestamp": "2025-12-01T02:46:51.394696+00:00",
        "meta": {
          "OBJECT_NAME": "STARLINK-35502",
          "OBJECT_ID": "2025-259P",
          "EPOCH": "2025-11-30T20:00:03.000384",
          "MEAN_MOTION": 15.56131822,
          "ECCENTRICITY": 0.0001502,
          "INCLINATION": 42.9991,
          "RA_OF_ASC_NODE": 116.9503,
          "ARG_OF_PERICENTER": 272.191,
          "MEAN_ANOMALY": 55.9053,
          "EPHEMERIS_TYPE": 0,
          "CLASSIFICATION_TYPE": "U",
          "NORAD_CAT_ID": 66435,
          "ELEMENT_SET_NO": 999,
          "REV_AT_EPOCH": 436,
          "BSTAR": -0.031044,
          "MEAN_MOTION_DOT": -0.01958982,
          "MEAN_MOTION_DDOT": 0
        }
      },
      "geometry": {
        "type": "Point",
        "coordinates": [
          NaN,
          NaN
        ]
      }
    },
    {
      "type": "Feature",
      "properties": {
        "norad_id": 66436,
        "name": "STARLINK-35501",
        "group": "last-30-days",
        "lat": NaN,
        "lon": NaN,
        "alt_km": NaN,
        "timestamp": "2025-12-01T02:46:51.394713+00:00",
        "meta": {
          "OBJECT_NAME": "STARLINK-35501",
          "OBJECT_ID": "2025-259Q",
          "EPOCH": "2025-11-30T20:00:03.000384",
          "MEAN_MOTION": 15.56131853,
          "ECCENTRICITY": 0.0001534,
          "INCLINATION": 42.9995,
          "RA_OF_ASC_NODE": 116.9403,
          "ARG_OF_PERICENTER": 274.1341,
          "MEAN_ANOMALY": 57.7951,
          "EPHEMERIS_TYPE": 0,
          "CLASSIFICATION_TYPE": "U",
          "NORAD_CAT_ID": 66436,
          "ELEMENT_SET_NO": 999,
          "REV_AT_EPOCH": 436,
          "BSTAR": -0.031031,
          "MEAN_MOTION_DOT": -0.01958255,
          "MEAN_MOTION_DDOT": 0
        }
      },
      "geometry": {
        "type": "Point",
        "coordinates": [
          NaN,
          NaN
        ]
      }
    },
    {
      "type": "Feature",
      "properties": {
        "norad_id": 66437,
        "name": "STARLINK-35474",
        "group": "last-30-days",
        "lat": NaN,
        "lon": NaN,
        "alt_km": NaN,
        "timestamp": "2025-12-01T02:46:51.394729+00:00",
        "meta": {
          "OBJECT_NAME": "STARLINK-35474",
          "OBJECT_ID": "2025-259R",
          "EPOCH": "2025-11-30T20:00:03.000384",
          "MEAN_MOTION": 15.56129828,
          "ECCENTRICITY": 0.0001617,
          "INCLINATION": 42.9994,
          "RA_OF_ASC_NODE": 116.9357,
          "ARG_OF_PERICENTER": 279.521,
          "MEAN_ANOMALY": 54.323,
          "EPHEMERIS_TYPE": 0,
          "CLASSIFICATION_TYPE": "U",
          "NORAD_CAT_ID": 66437,
          "ELEMENT_SET_NO": 999,
          "REV_AT_EPOCH": 436,
          "BSTAR": -0.030964,
          "MEAN_MOTION_DOT": -0.01954474,
          "MEAN_MOTION_DDOT": 0
        }
      },
      "geometry": {
        "type": "Point",
        "coordinates": [
          NaN,
          NaN
        ]
      }
    },
    {
      "type": "Feature",
      "properties": {
        "norad_id": 66438,
        "name": "STARLINK-34681",
        "group": "last-30-days",
        "lat": NaN,
        "lon": NaN,
        "alt_km": NaN,
        "timestamp": "2025-12-01T02:46:51.394748+00:00",
        "meta": {
          "OBJECT_NAME": "STARLINK-34681",
          "OBJECT_ID": "2025-259S",
          "EPOCH": "2025-11-30T20:00:03.000384",
          "MEAN_MOTION": 15.56132842,
          "ECCENTRICITY": 0.0001634,
          "INCLINATION": 42.9994,
          "RA_OF_ASC_NODE": 116.9304,
          "ARG_OF_PERICENTER": 277.692,
          "MEAN_ANOMALY": 58.0712,
          "EPHEMERIS_TYPE": 0,
          "CLASSIFICATION_TYPE": "U",
          "NORAD_CAT_ID": 66438,
          "ELEMENT_SET_NO": 999,
          "REV_AT_EPOCH": 425,
          "BSTAR": -0.031082,
          "MEAN_MOTION_DOT": -0.01961205,
          "MEAN_MOTION_DDOT": 0
        }
      },
      "geometry": {
        "type": "Point",
        "coordinates": [
          NaN,
          NaN
        ]
      }
    },
    {
      "type": "Feature",
      "properties": {
        "norad_id": 66439,
        "name": "STARLINK-35327",
        "group": "last-30-days",
        "lat": NaN,
        "lon": NaN,
        "alt_km": NaN,
        "timestamp": "2025-12-01T02:46:51.394765+00:00",
        "meta": {
          "OBJECT_NAME": "STARLINK-35327",
          "OBJECT_ID": "2025-259T",
          "EPOCH": "2025-11-30T20:00:03.000384",
          "MEAN_MOTION": 15.56126279,
          "ECCENTRICITY": 0.0001463,
          "INCLINATION": 42.9992,
          "RA_OF_ASC_NODE": 116.947,
          "ARG_OF_PERICENTER": 279.4644,
          "MEAN_ANOMALY": 50.5497,
          "EPHEMERIS_TYPE": 0,
          "CLASSIFICATION_TYPE": "U",
          "NORAD_CAT_ID": 66439,
          "ELEMENT_SET_NO": 999,
          "REV_AT_EPOCH": 436,
          "BSTAR": -0.030925,
          "MEAN_MOTION_DOT": -0.0195199,
          "MEAN_MOTION_DDOT": 0
        }
      },
      "geometry": {
        "type": "Point",
        "coordinates": [
          NaN,
          NaN
        ]
      }
    },
    {
      "type": "Feature",
      "properties": {
        "norad_id": 66440,
        "name": "STARLINK-35405",
        "group": "last-30-days",
        "lat": NaN,
        "lon": NaN,
        "alt_km": NaN,
        "timestamp": "2025-12-01T02:46:51.394784+00:00",
        "meta": {
          "OBJECT_NAME": "STARLINK-35405",
          "OBJECT_ID": "2025-259U",
          "EPOCH": "2025-11-30T20:00:03.000384",
          "MEAN_MOTION": 15.5613283,
          "ECCENTRICITY": 0.0001422,
          "INCLINATION": 42.9994,
          "RA_OF_ASC_NODE": 116.9271,
          "ARG_OF_PERICENTER": 272.6312,
          "MEAN_ANOMALY": 65.0504,
          "EPHEMERIS_TYPE": 0,
          "CLASSIFICATION_TYPE": "U",
          "NORAD_CAT_ID": 66440,
          "ELEMENT_SET_NO": 999,
          "REV_AT_EPOCH": 436,
          "BSTAR": -0.031059,
          "MEAN_MOTION_DOT": -0.01959825,
          "MEAN_MOTION_DDOT": 0
        }
      },
      "geometry": {
        "type": "Point",
        "coordinates": [
          NaN,
          NaN
        ]
      }
    }
  ]
}