STARLINK-35457          
1 66433U 25259M   25334.83336806 -.01961258  00000+0 -31082-1 0  9997
2 66433  42.9990 116.9597 0001551 272.7291  51.5310 15.56133969  4363
STARLINK-35389          
1 66434U 25259N   25334.83336806 -.01949525  00000+0 -30882-1 0  9998
2 66434  42.9987 116.9549 0001430 276.6260  49.5540 15.56125222  4367
STARLINK-35502          
1 66435U 25259P   25334.83336806 -.01958982  00000+0 -31044-1 0  9997
2 66435  42.9991 116.9503 0001502 272.1910  55.9053 15.56131822  4369
STARLINK-35501          
1 66436U 25259Q   25334.83336806 -.01958255  00000+0 -31031-1 0  9997
2 66436  42.9995 116.9403 0001534 274.1341  57.7951 15.56131853  4369
STARLINK-35474          
1 66437U 25259R   25334.83336806 -.01954474  00000+0 -30964-1 0  9991
2 66437  42.9994 116.9357 0001617 279.5210  54.3230 15.56129828  4365
STARLINK-34681          
1 66438U 25259S   25334.83336806 -.01961205  00000+0 -31082-1 0  9994
2 66438  42.9994 116.9304 0001634 277.6920  58.0712 15.56132842  4258
STARLINK-35327          
1 66439U 25259T   25334.83336806 -.01951990  00000+0 -30925-1 0  9990
2 66439  42.9992 116.9470 0001463 279.4644  50.5497 15.56126279  4360
STARLINK-35405          
1 66440U 25259U   25334.83336806 -.01959825  00000+0 -31059-1 0  9996
2 66440  42.9994 116.9271 0001422 272.6312  65.0504 15.56132830  4365
